{
  "type": "FeatureCollection",
  "features": [
    {
      "type": "Feature",
      "properties": {
        "norad_id": 30912,
        "name": "FENGYUN 1C DEB",
        "group": "fengyun-1c-debris",
        "lat": -57.6470303303615,
        "lon": -8.872116525784149,
        "alt_km": 635.959786285699,
        "timestamp": "2025-12-10T14:53:37.371082+00:00",
        "meta_object_name": "FENGYUN 1C DEB",
        "meta_object_id": "1999-025AZA",
        "meta_epoch": "2025-12-10T00:55:48.634176",
        "meta_mean_motion": 14.89256863,
        "meta_eccentricity": 0.0059312,
        "meta_inclination": 98.997,
        "meta_ra_of_asc_node": 184.9513,
        "meta_arg_of_pericenter": 106.4278,
        "meta_mean_anomaly": 254.3466,
        "meta_ephemeris_type": 0,
        "meta_classification_type": "U",
        "meta_norad_cat_id": 30912,
        "meta_element_set_no": 999,
        "meta_rev_at_epoch": 99364,
        "meta_bstar": 0.0020308915,
        "meta_mean_motion_dot": 0.00019848,
        "meta_mean_motion_ddot": 0,
        "tle_line1": "1 30912U 99025AZA 25344.03875734  .00019848  00000+0  20309-2 0  9990",
        "tle_line2": "2 30912  98.9970 184.9513 0059312 106.4278 254.3466 14.89256863993641"
      },
      "geometry": {
        "type": "Point",
        "coordinates": [
          -8.872116525784149,
          -57.6470303303615
        ]
      }
    },
    {
      "type": "Feature",
      "properties": {
        "norad_id": 30913,
        "name": "FENGYUN 1C DEB",
        "group": "fengyun-1c-debris",
        "lat": -30.99972698634403,
        "lon": 16.949741211382246,
        "alt_km": 910.1923336896134,
        "timestamp": "2025-12-10T14:53:37.371091+00:00",
        "meta_object_name": "FENGYUN 1C DEB",
        "meta_object_id": "1999-025AZB",
        "meta_epoch": "2025-12-10T01:22:13.865952",
        "meta_mean_motion": 14.0494359,
        "meta_eccentricity": 0.0048466,
        "meta_inclination": 98.7462,
        "meta_ra_of_asc_node": 11.0993,
        "meta_arg_of_pericenter": 188.5939,
        "meta_mean_anomaly": 171.4404,
        "meta_ephemeris_type": 0,
        "meta_classification_type": "U",
        "meta_norad_cat_id": 30913,
        "meta_element_set_no": 999,
        "meta_rev_at_epoch": 95880,
        "meta_bstar": 0.00075287838,
        "meta_mean_motion_dot": 1.181e-05,
        "meta_mean_motion_ddot": 0,
        "tle_line1": "1 30913U 99025AZB 25344.05710493  .00001181  00000+0  75288-3 0  9991",
        "tle_line2": "2 30913  98.7462  11.0993 0048466 188.5939 171.4404 14.04943590958808"
      },
      "geometry": {
        "type": "Point",
        "coordinates": [
          16.949741211382246,
          -30.99972698634403
        ]
      }
    },
    {
      "type": "Feature",
      "properties": {
        "norad_id": 30914,
        "name": "FENGYUN 1C DEB",
        "group": "fengyun-1c-debris",
        "lat": -31.56992298893527,
        "lon": 42.44481225818134,
        "alt_km": 1556.1137137734868,
        "timestamp": "2025-12-10T14:53:37.371100+00:00",
        "meta_object_name": "FENGYUN 1C DEB",
        "meta_object_id": "1999-025AZC",
        "meta_epoch": "2025-12-05T09:02:51.683712",
        "meta_mean_motion": 13.08779712,
        "meta_eccentricity": 0.05156065,
        "meta_inclination": 99.9823,
        "meta_ra_of_asc_node": 223.7471,
        "meta_arg_of_pericenter": 11.0586,
        "meta_mean_anomaly": 350.1366,
        "meta_ephemeris_type": 0,
        "meta_classification_type": "U",
        "meta_norad_cat_id": 30914,
        "meta_element_set_no": 999,
        "meta_rev_at_epoch": 58979,
        "meta_bstar": 0.0075081183,
        "meta_mean_motion_dot": 4.885e-05,
        "meta_mean_motion_ddot": 0,
        "tle_line1": "1 30914U 99025AZC 25339.37698708  .00004885  00000+0  75081-2 0  9999",
        "tle_line2": "2 30914  99.9823 223.7471 0515606  11.0586 350.1366 13.08779712589796"
      },
      "geometry": {
        "type": "Point",
        "coordinates": [
          42.44481225818134,
          -31.56992298893527
        ]
      }
    },
    {
      "type": "Feature",
      "properties": {
        "norad_id": 30915,
        "name": "FENGYUN 1C DEB",
        "group": "fengyun-1c-debris",
        "lat": 52.63442640072027,
        "lon": -107.34668580751382,
        "alt_km": 777.3009000440397,
        "timestamp": "2025-12-10T14:53:37.371109+00:00",
        "meta_object_name": "FENGYUN 1C DEB",
        "meta_object_id": "1999-025AZD",
        "meta_epoch": "2025-12-10T04:11:23.980704",
        "meta_mean_motion": 14.25008915,
        "meta_eccentricity": 0.00538255,
        "meta_inclination": 98.9414,
        "meta_ra_of_asc_node": 60.3008,
        "meta_arg_of_pericenter": 175.2904,
        "meta_mean_anomaly": 184.8792,
        "meta_ephemeris_type": 0,
        "meta_classification_type": "U",
        "meta_norad_cat_id": 30915,
        "meta_element_set_no": 999,
        "meta_rev_at_epoch": 96476,
        "meta_bstar": 0.0022483517,
        "meta_mean_motion_dot": 5.301e-05,
        "meta_mean_motion_ddot": 0,
        "tle_line1": "1 30915U 99025AZD 25344.17458311  .00005301  00000+0  22484-2 0  9991",
        "tle_line2": "2 30915  98.9414  60.3008 0053825 175.2904 184.8792 14.25008915964769"
      },
      "geometry": {
        "type": "Point",
        "coordinates": [
          -107.34668580751382,
          52.63442640072027
        ]
      }
    },
    {
      "type": "Feature",
      "properties": {
        "norad_id": 30916,
        "name": "FENGYUN 1C DEB",
        "group": "fengyun-1c-debris",
        "lat": -62.293426917608414,
        "lon": 62.5361084413555,
        "alt_km": 832.1915042424316,
        "timestamp": "2025-12-10T14:53:37.371118+00:00",
        "meta_object_name": "FENGYUN 1C DEB",
        "meta_object_id": "1999-025AZE",
        "meta_epoch": "2025-12-09T03:31:45.007680",
        "meta_mean_motion": 14.0877406,
        "meta_eccentricity": 0.00625639,
        "meta_inclination": 99.002,
        "meta_ra_of_asc_node": 43.4963,
        "meta_arg_of_pericenter": 268.4567,
        "meta_mean_anomaly": 118.5461,
        "meta_ephemeris_type": 0,
        "meta_classification_type": "U",
        "meta_norad_cat_id": 30916,
        "meta_element_set_no": 999,
        "meta_rev_at_epoch": 95793,
        "meta_bstar": 0.0014002638,
        "meta_mean_motion_dot": 2.414e-05,
        "meta_mean_motion_ddot": 0,
        "tle_line1": "1 30916U 99025AZE 25343.14704870  .00002414  00000+0  14003-2 0  9992",
        "tle_line2": "2 30916  99.0020  43.4963 0062563 268.4567 118.5461 14.08774060957936"
      },
      "geometry": {
        "type": "Point",
        "coordinates": [
          62.5361084413555,
          -62.293426917608414
        ]
      }
    },
    {
      "type": "Feature",
      "properties": {
        "norad_id": 30918,
        "name": "FENGYUN 1C DEB",
        "group": "fengyun-1c-debris",
        "lat": 67.761412825579,
        "lon": -61.76332109641922,
        "alt_km": 790.0503456332281,
        "timestamp": "2025-12-10T14:53:37.371127+00:00",
        "meta_object_name": "FENGYUN 1C DEB",
        "meta_object_id": "1999-025AZG",
        "meta_epoch": "2025-12-09T07:44:10.539744",
        "meta_mean_motion": 13.96798125,
        "meta_eccentricity": 0.0158393,
        "meta_inclination": 98.4162,
        "meta_ra_of_asc_node": 95.8196,
        "meta_arg_of_pericenter": 134.8714,
        "meta_mean_anomaly": 291.8901,
        "meta_ephemeris_type": 0,
        "meta_classification_type": "U",
        "meta_norad_cat_id": 30918,
        "meta_element_set_no": 999,
        "meta_rev_at_epoch": 95005,
        "meta_bstar": 0.002218,
        "meta_mean_motion_dot": 3.39e-05,
        "meta_mean_motion_ddot": 0,
        "tle_line1": "1 30918U 99025AZG 25343.32234421  .00003390  00000+0  22180-2 0  9993",
        "tle_line2": "2 30918  98.4162  95.8196 0158393 134.8714 291.8901 13.96798125950058"
      },
      "geometry": {
        "type": "Point",
        "coordinates": [
          -61.76332109641922,
          67.761412825579
        ]
      }
    },
    {
      "type": "Feature",
      "properties": {
        "norad_id": 30920,
        "name": "FENGYUN 1C DEB",
        "group": "fengyun-1c-debris",
        "lat": -45.31670740130728,
        "lon": -63.22762297522997,
        "alt_km": 884.4855537457934,
        "timestamp": "2025-12-10T14:53:37.371135+00:00",
        "meta_object_name": "FENGYUN 1C DEB",
        "meta_object_id": "1999-025AZJ",
        "meta_epoch": "2025-12-10T03:40:12.350208",
        "meta_mean_motion": 14.16565687,
        "meta_eccentricity": 0.01102075,
        "meta_inclination": 98.9197,
        "meta_ra_of_asc_node": 125.4406,
        "meta_arg_of_pericenter": 105.8261,
        "meta_mean_anomaly": 255.5095,
        "meta_ephemeris_type": 0,
        "meta_classification_type": "U",
        "meta_norad_cat_id": 30920,
        "meta_element_set_no": 999,
        "meta_rev_at_epoch": 95057,
        "meta_bstar": 0.005609555,
        "meta_mean_motion_dot": 0.00011839,
        "meta_mean_motion_ddot": 0,
        "tle_line1": "1 30920U 99025AZJ 25344.15292072  .00011839  00000+0  56096-2 0  9994",
        "tle_line2": "2 30920  98.9197 125.4406 0110207 105.8261 255.5095 14.16565687950571"
      },
      "geometry": {
        "type": "Point",
        "coordinates": [
          -63.22762297522997,
          -45.31670740130728
        ]
      }
    }
  ]
}